CSS (TIANHE)            
1 48274U 21035A   24124.12815019  .00042129  00000+0  45250-3 0  9992
2 48274  41.4690 358.3700 0004021 285.0926  74.9468 15.62977653172049
